{"type": "FeatureCollection", "features": [ {"type": "Feature", "properties": {"norad_id": 42969, "name": "SENTINEL-5P", "group": "resource", "lat": 46.96537196180823, "lon": -90.10348229729391, "alt_km": 822.2670774766093, "timestamp": "2025-12-06T18:50:09.828362+00:00", "meta": {"OBJECT_NAME": "SENTINEL-5P", "OBJECT_ID": "2017-064A", "EPOCH": "2025-12-06T06:46:13.688832", "MEAN_MOTION": 14.19514985, "ECCENTRICITY": 9.381e-05, "INCLINATION": 98.7775, "RA_OF_ASC_NODE": 278.9238, "ARG_OF_PERICENTER": 86.3466, "MEAN_ANOMALY": 273.7817, "EPHEMERIS_TYPE": 0, "CLASSIFICATION_TYPE": "U", "NORAD_CAT_ID": 42969, "ELEMENT_SET_NO": 999, "REV_AT_EPOCH": 42219, "BSTAR": 0.00011047744, "MEAN_MOTION_DOT": 1.89e-06, "MEAN_MOTION_DDOT": 0}, "tle": {"line1": "1 42969U 17064A   25340.28210288  .00000189  00000+0  11048-3 0  9997", "line2": "2 42969  98.7775 278.9238 0000938  86.3466 273.7817 14.19514985422197"}}, "geometry": {"type": "Point", "coordinates": [-90.10348229729391, 46.96537196180823]}}, {"type": "Feature", "properties": {"norad_id": 42987, "name": "SKYSAT-C11", "group": "resource", "lat": -51.96761564146112, "lon": 127.7148493213519, "alt_km": 432.87669682460364, "timestamp": "2025-12-06T18:50:09.828372+00:00", "meta": {"OBJECT_NAME": "SKYSAT-C11", "OBJECT_ID": "2017-068A", "EPOCH": "2025-12-06T03:32:22.484544", "MEAN_MOTION": 15.47038651, "ECCENTRICITY": 9.076e-05, "INCLINATION": 97.4143, "RA_OF_ASC_NODE": 117.4787, "ARG_OF_PERICENTER": 108.2522, "MEAN_ANOMALY": 251.8826, "EPHEMERIS_TYPE": 0, "CLASSIFICATION_TYPE": "U", "NORAD_CAT_ID": 42987, "ELEMENT_SET_NO": 999, "REV_AT_EPOCH": 45329, "BSTAR": 0.00060302585, "MEAN_MOTION_DOT": 0.00030467, "MEAN_MOTION_DDOT": 0}, "tle": {"line1": "1 42987U 17068A   25340.14748246  .00030467  00000+0  60303-3 0  9996", "line2": "2 42987  97.4143 117.4787 0000907 108.2522 251.8826 15.47038651453296"}}, "geometry": {"type": "Point", "coordinates": [127.7148493213519, -51.96761564146112]}}, {"type": "Feature", "properties": {"norad_id": 42988, "name": "SKYSAT-C10", "group": "resource", "lat": -4.761110270123608, "lon": 112.2429193757295, "alt_km": 475.98163440928965, "timestamp": "2025-12-06T18:50:09.828382+00:00", "meta": {"OBJECT_NAME": "SKYSAT-C10", "OBJECT_ID": "2017-068B", "EPOCH": "2025-12-06T03:10:46.655616", "MEAN_MOTION": 15.31848276, "ECCENTRICITY": 0.00052009, "INCLINATION": 97.4258, "RA_OF_ASC_NODE": 110.9667, "ARG_OF_PERICENTER": 122.6613, "MEAN_ANOMALY": 237.5131, "EPHEMERIS_TYPE": 0, "CLASSIFICATION_TYPE": "U", "NORAD_CAT_ID": 42988, "ELEMENT_SET_NO": 999, "REV_AT_EPOCH": 45278, "BSTAR": 0.00055398039, "MEAN_MOTION_DOT": 0.00016982, "MEAN_MOTION_DDOT": 0}, "tle": {"line1": "1 42988U 17068B   25340.13248444  .00016982  00000+0  55398-3 0  9995", "line2": "2 42988  97.4258 110.9667 0005200 122.6613 237.5131 15.31848276452789"}}, "geometry": {"type": "Point", "coordinates": [112.2429193757295, -4.761110270123608]}}, {"type": "Feature", "properties": {"norad_id": 42989, "name": "SKYSAT-C9", "group": "resource", "lat": 61.067783259769136, "lon": -55.37116669114262, "alt_km": 445.4205948149247, "timestamp": "2025-12-06T18:50:09.828392+00:00", "meta": {"OBJECT_NAME": "SKYSAT-C9", "OBJECT_ID": "2017-068C", "EPOCH": "2025-12-06T07:22:43.611744", "MEAN_MOTION": 15.35801828, "ECCENTRICITY": 0.00106662, "INCLINATION": 97.4192, "RA_OF_ASC_NODE": 110.5125, "ARG_OF_PERICENTER": 108.5669, "MEAN_ANOMALY": 251.6735, "EPHEMERIS_TYPE": 0, "CLASSIFICATION_TYPE": "U", "NORAD_CAT_ID": 42989, "ELEMENT_SET_NO": 999, "REV_AT_EPOCH": 45309, "BSTAR": 0.00064299686, "MEAN_MOTION_DOT": 0.00022394, "MEAN_MOTION_DDOT": 0}, "tle": {"line1": "1 42989U 17068C   25340.30744921  .00022394  00000+0  64300-3 0  9993", "line2": "2 42989  97.4192 110.5125 0010666 108.5669 251.6735 15.35801828453096"}}, "geometry": {"type": "Point", "coordinates": [-55.37116669114262, 61.067783259769136]}}, {"type": "Feature", "properties": {"norad_id": 42990, "name": "SKYSAT-C8", "group": "resource", "lat": 24.200226250414023, "lon": -65.87768044139978, "alt_km": 468.3304787487996, "timestamp": "2025-12-06T18:50:09.828403+00:00", "meta": {"OBJECT_NAME": "SKYSAT-C8", "OBJECT_ID": "2017-068D", "EPOCH": "2025-12-06T07:11:31.183872", "MEAN_MOTION": 15.32708401, "ECCENTRICITY": 0.00020241, "INCLINATION": 97.4285, "RA_OF_ASC_NODE": 110.2736, "ARG_OF_PERICENTER": 11.4682, "MEAN_ANOMALY": 348.6605, "EPHEMERIS_TYPE": 0, "CLASSIFICATION_TYPE": "U", "NORAD_CAT_ID": 42990, "ELEMENT_SET_NO": 999, "REV_AT_EPOCH": 45272, "BSTAR": 0.00059764684, "MEAN_MOTION_DOT": 0.00018825, "MEAN_MOTION_DDOT": 0}, "tle": {"line1": "1 42990U 17068D   25340.29966648  .00018825  00000+0  59765-3 0  9998", "line2": "2 42990  97.4285 110.2736 0002024  11.4682 348.6605 15.32708401452724"}}, "geometry": {"type": "Point", "coordinates": [-65.87768044139978, 24.200226250414023]}}, {"type": "Feature", "properties": {"norad_id": 42991, "name": "SKYSAT-C7", "group": "resource", "lat": 23.193727751157454, "lon": 108.60152731104716, "alt_km": 465.77978530729797, "timestamp": "2025-12-06T18:50:09.828413+00:00", "meta": {"OBJECT_NAME": "SKYSAT-C7", "OBJECT_ID": "2017-068E", "EPOCH": "2025-12-06T07:45:43.457760", "MEAN_MOTION": 15.32117025, "ECCENTRICITY": 0.00078539, "INCLINATION": 97.429, "RA_OF_ASC_NODE": 111.3437, "ARG_OF_PERICENTER": 76.993, "MEAN_ANOMALY": 283.2188, "EPHEMERIS_TYPE": 0, "CLASSIFICATION_TYPE": "U", "NORAD_CAT_ID": 42991, "ELEMENT_SET_NO": 999, "REV_AT_EPOCH": 45279, "BSTAR": 0.00062036879, "MEAN_MOTION_DOT": 0.00019203, "MEAN_MOTION_DDOT": 0}, "tle": {"line1": "1 42991U 17068E   25340.32341965  .00019203  00000+0  62037-3 0  9999", "line2": "2 42991  97.4290 111.3437 0007853  76.9930 283.2188 15.32117025452791"}}, "geometry": {"type": "Point", "coordinates": [108.60152731104716, 23.193727751157454]}}, {"type": "Feature", "properties": {"norad_id": 42992, "name": "SKYSAT-C6", "group": "resource", "lat": 21.32741062974417, "lon": -64.82857269348047, "alt_km": 470.08649211602733, "timestamp": "2025-12-06T18:50:09.828423+00:00", "meta": {"OBJECT_NAME": "SKYSAT-C6", "OBJECT_ID": "2017-068F", "EPOCH": "2025-12-06T04:01:56.356032", "MEAN_MOTION": 15.31283094, "ECCENTRICITY": 0.00051708, "INCLINATION": 97.4325, "RA_OF_ASC_NODE": 111.6316, "ARG_OF_PERICENTER": 100.9613, "MEAN_ANOMALY": 259.221, "EPHEMERIS_TYPE": 0, "CLASSIFICATION_TYPE": "U", "NORAD_CAT_ID": 42992, "ELEMENT_SET_NO": 999, "REV_AT_EPOCH": 45275, "BSTAR": 0.00055327304, "MEAN_MOTION_DOT": 0.00016664, "MEAN_MOTION_DDOT": 0}, "tle": {"line1": "1 42992U 17068F   25340.16801338  .00016664  00000+0  55327-3 0  9999", "line2": "2 42992  97.4325 111.6316 0005170 100.9613 259.2210 15.31283094452750"}}, "geometry": {"type": "Point", "coordinates": [-64.82857269348047, 21.32741062974417]}}, {"type": "Feature", "properties": {"norad_id": 43111, "name": "CARTOSAT-2F", "group": "resource", "lat": 14.630326342152, "lon": -139.52821747243954, "alt_km": 508.9373111234836, "timestamp": "2025-12-06T18:50:09.828433+00:00", "meta": {"OBJECT_NAME": "CARTOSAT-2F", "OBJECT_ID": "2018-004A", "EPOCH": "2025-12-06T07:02:45.286080", "MEAN_MOTION": 15.19178411, "ECCENTRICITY": 5.994e-05, "INCLINATION": 97.4326, "RA_OF_ASC_NODE": 38.0355, "ARG_OF_PERICENTER": 135.8128, "MEAN_ANOMALY": 224.3154, "EPHEMERIS_TYPE": 0, "CLASSIFICATION_TYPE": "U", "NORAD_CAT_ID": 43111, "ELEMENT_SET_NO": 999, "REV_AT_EPOCH": 43804, "BSTAR": 0.00042176404, "MEAN_MOTION_DOT": 8.807e-05, "MEAN_MOTION_DDOT": 0}, "tle": {"line1": "1 43111U 18004A   25340.29357970  .00008807  00000+0  42176-3 0  9994", "line2": "2 43111  97.4326  38.0355 0000599 135.8128 224.3154 15.19178411438046"}}, "geometry": {"type": "Point", "coordinates": [-139.52821747243954, 14.630326342152]}}, {"type": "Feature", "properties": {"norad_id": 43259, "name": "GAOFEN-1 02", "group": "resource", "lat": 52.502444725225345, "lon": -130.75611424410033, "alt_km": 635.9660502323777, "timestamp": "2025-12-06T18:50:09.828443+00:00", "meta": {"OBJECT_NAME": "GAOFEN-1 02", "OBJECT_ID": "2018-031A", "EPOCH": "2025-12-06T06:52:43.422816", "MEAN_MOTION": 14.76460442, "ECCENTRICITY": 0.00013692, "INCLINATION": 98.0814, "RA_OF_ASC_NODE": 38.0735, "ARG_OF_PERICENTER": 239.6053, "MEAN_ANOMALY": 120.5021, "EPHEMERIS_TYPE": 0, "CLASSIFICATION_TYPE": "U", "NORAD_CAT_ID": 43259, "ELEMENT_SET_NO": 999, "REV_AT_EPOCH": 41423, "BSTAR": 0.00031270784, "MEAN_MOTION_DOT": 2.124e-05, "MEAN_MOTION_DDOT": 0}, "tle": {"line1": "1 43259U 18031A   25340.28661369  .00002124  00000+0  31271-3 0  9996", "line2": "2 43259  98.0814  38.0735 0001369 239.6053 120.5021 14.76460442414231"}}, "geometry": {"type": "Point", "coordinates": [-130.75611424410033, 52.502444725225345]}}, {"type": "Feature", "properties": {"norad_id": 43260, "name": "GAOFEN-1 03", "group": "resource", "lat": -61.57325291687179, "lon": -156.76666582595678, "alt_km": 648.2499806163478, "timestamp": "2025-12-06T18:50:09.828453+00:00", "meta": {"OBJECT_NAME": "GAOFEN-1 03", "OBJECT_ID": "2018-031B", "EPOCH": "2025-12-06T07:58:52.153248", "MEAN_MOTION": 14.7641697, "ECCENTRICITY": 0.00023981, "INCLINATION": 98.0806, "RA_OF_ASC_NODE": 37.9971, "ARG_OF_PERICENTER": 348.8152, "MEAN_ANOMALY": 11.3004, "EPHEMERIS_TYPE": 0, "CLASSIFICATION_TYPE": "U", "NORAD_CAT_ID": 43260, "ELEMENT_SET_NO": 999, "REV_AT_EPOCH": 41423, "BSTAR": 0.00031574585, "MEAN_MOTION_DOT": 2.143e-05, "MEAN_MOTION_DDOT": 0}, "tle": {"line1": "1 43260U 18031B   25340.33254807  .00002143  00000+0  31575-3 0  9997", "line2": "2 43260  98.0806  37.9971 0002398 348.8152  11.3004 14.76416970414235"}}, "geometry": {"type": "Point", "coordinates": [-156.76666582595678, -61.57325291687179]}}]}